#dP2023  8  2  0  0  0.00000000      96 __u+U ITR00 EXT  IAC
## 2273 259200.00000000   900.00000000 60158 0.0000000000000
+  119   C06C07C08C09C10C11C12C13C14C16C19C20C21C22C23C24C25
+        C26C27C28C29C30C32C33C34C35C36C37C38C39C40C41C42C43
+        C44C45C46E02E03E04E05E07E08E09E10E11E12E13E14E15E18
+        E19E21E24E25E26E27E30E31E33E34E36G01G02G03G04G05G06
+        G07G08G09G10G11G12G13G14G15G16G17G18G19G20G21G22G23
+        G24G25G26G27G28G29G30G31G32J02J03J04R01R02R03R04R05
+        R07R08R09R11R12R13R14R15R16R17R18R19R20R21R22R24R25
++        10 11 11 10 11  8  8  9  9 10  8  9  8  8  8  9  6
++         8  8  8  7  6  9  7  8  9  7  7 11 10 11  8  8 10
++         8  7  9  7  8  8  9  8  9  9  8  9  9  6  7  7  6
++         8  7  7  7  6  8  8  7  8  7  7  7  7  7  7  8  8
++         7  7  7  7  6  7  8  7  7  7  7  7  8  8  6  6  7
++         7  9  6  8  7  8  6  7  7 10  8  9  9  7  8 10  7
++         7  7  6  8  7  7  7  8  7  9  7  7  9  6  8  8  8
%c M  cc GPS ccc cccc cccc cccc cccc ccccc ccccc ccccc ccccc
%c cc cc ccc ccc cccc cccc cccc cccc ccccc ccccc ccccc ccccc
%f  0.0000000  0.000000000  0.00000000000  0.000000000000000
%f  0.0000000  0.000000000  0.00000000000  0.000000000000000
%i    0    0    0    0      0      0      0      0         0
%i    0    0    0    0      0      0      0      0         0
/* IAC                                ULTRA-RAPID PREDICTION
/* S/V CLOCKS ARE ALIGNED TO GNSS TIME                      
/* G:C1WC2W R:C1PC2P E:C1XC5X C:C2IC6I J:C1CC2S             
/* PCV:IGS20_2247 OL/AL:FES2004  NONE     YN ORB:CoN CLK:CoN
*  2023 08 02 14 15  0.00000000
PC06 -11107.510111  22901.161435  33610.965769    767.825599
PC07 -14993.451824  38766.082703  -7611.467162    131.774057
PC08    655.924071  34335.155701 -24330.784919    405.569668
PC09   -126.660644  24951.789890  34451.882150    341.566245
PC10 -10012.933400  39145.038539 -12664.212178   -133.115986
PC11   3574.391234 -15522.841483  22973.438534    758.390074
PC12  22204.468457 -10769.546253  13045.370707    837.763160
PC13   5604.428392  37241.717794 -18523.479336    327.010474
PC14   5559.368103 -26204.601988  -7702.547338    159.808658
PC16 -12920.322634  22019.951361  33754.264215    -18.884333
PC19   1705.695466  23003.834907  15742.004578   -951.609475
PC20 -10974.499963  25676.969919    175.738299    391.243901
PC21  18094.570842 -12932.265621  16847.353784   -943.321074
PC22  14067.755162   6965.694010  23064.822889   -368.977862
PC23 -20493.947596 -16636.688823   9068.446474   -919.777447
PC24   5435.905566 -17850.796068 -20760.112608    240.406684
PC25 -11920.073760 -24097.450548  -7524.418551    180.954966
PC26  17761.047511  -2287.728837 -21405.482591   -157.510269
PC27 -26608.487430   6522.918195  -5318.912604    178.601518
PC28 -25244.133059  -4929.479793  10838.495992    133.398763
PC29   8260.376492  14570.282760 -22327.952720    155.534990
PC30 -13644.474534  15332.444960 -18910.203385     -2.951592
PC32 -18005.670301  13016.357210 -16885.526909   -534.624008
PC33  -1793.247564 -23032.126784 -15642.855023   -927.389706
PC34  12259.241926 -15637.750081  19585.511256    228.346663
PC35  25267.676394   4257.134843 -11105.938009    576.028024
PC36  10731.948193  24404.192825   8264.975786   -297.011583
PC37 -18291.661489    857.027478  21081.918837   -801.163578
PC38  -6010.943669  30114.130771 -28786.037739     95.584472
PC39 -19312.107992  20623.704394  31262.940744     -4.111217
PC40 -22538.660217  35360.298260  -5560.866729    -31.506997
PC41 -13780.550347  -7646.990129 -22981.777504   -893.629778
PC42  11792.734451 -25244.027794   1301.595072   -591.038456
PC43  -7268.455437 -14942.806767  22405.777174     33.491450
PC44  26436.445311  -7404.186239   5061.807319    187.716941
PC45  20522.258185  16297.819570  -9552.740251     -9.237852
PC46  -4230.974198  18678.562893  20288.698658    -73.517154
PE02 -15331.217515 -14467.817006  20787.185142     53.325625
PE03 -20681.683550  -3568.558222 -20882.048051    -42.034125
PE04  26072.436597 -12539.055615   6257.768886   -180.419547
PE05  -3132.968892 -17774.260065 -23458.084747      5.303150
PE07 -16455.229932  21477.963775  12024.208072    -64.450564
PE08 -26082.486915  12329.842403  -6654.967212   -124.056955
PE09  16581.481325 -21407.106407 -11936.688520   -106.279374
PE10  17050.731699  -8120.896319  22775.055008   -553.102662
PE11   6643.768932 -14638.977670  24836.528172   2633.771281
PE12  23965.205453   -973.971018  17342.249787   -642.335605
PE13  -7368.589022  14216.385392 -24899.185751    -19.385370
PE14  -2446.119295  22802.809824 -22179.447365    299.831581
PE15 -24143.434298    685.384708 -17113.884833    -41.942243
PE18  -9263.450193 -13100.542228  18986.899068    367.200380
PE19  18822.777286   5726.976838  22121.888703  -1939.391603
PE21   6573.556493  28105.535693  -6560.956852   -544.314171
PE24   7007.302715 -25815.188252 -12701.110636   -243.600756
PE25  -6367.145246 -28226.466960   6248.911984   -609.234997
PE26  14099.849688  19334.026272 -17421.593746    181.053391
PE27  -6499.827014  26179.266004  12190.941591   -114.550423
PE30 -15788.211049   8284.445778  23622.622134   -385.605399
PE31  15586.472115  -8869.887264 -23536.174587     -1.759251
PE33  26349.416112  13417.644556  -1217.931995     -1.964254
PE34 -26595.962165 -12999.797324    547.424017    -59.385636
PE36 -13487.008259 -19238.373279  17998.772614    -95.089317
PG01  21691.105897  15044.126785  -4635.805463    170.196678
PG02  18898.722202  15403.145029 -10221.441790   -569.771860
PG03  12351.852364  15924.154273  17216.245167   -205.770592
PG04  17167.655252   5540.911941  19543.424030    113.669567
PG05  -5486.515421 -25595.755421  -4327.357498   -137.259664
PG06  11548.092302 -10096.316753  21755.429793    571.368195
PG07  24308.437210   4595.033923  -9819.966098    107.301367
PG08   7295.815744  13517.598219 -21723.459614   -135.237734
PG09  22451.668229  -3603.776641  13682.457888    -96.859533
PG10 -11247.977385  15657.513405 -17945.189167    -47.635136
PG11  -3391.269238 -17612.122662  19612.620657   -302.860399
PG12  -9774.980590 -19722.512525  14641.190919   -408.119377
PG13   2359.789377 -16694.618119 -20655.507772    555.062880
PG14  13529.238745 -12309.146286 -19181.485959    141.625121
PG15  -9770.374677 -12731.977208 -21631.001989     63.830999
PG16   -467.253136  26302.955203   -743.948543   -473.351977
PG17  22423.662583 -14245.509059   2080.508121    722.105613
PG18 -23166.761287  -2428.703688 -12919.736382   -368.174836
PG19  18733.497138 -16234.226847   8854.813591    352.227527
PG20   -640.735166 -25728.256613   6984.726007    419.372019
PG21  17301.668745  16241.271784 -12253.151930    151.341547
PG22 -15459.169561  17957.965767  12289.952026    521.472785
PG23 -14761.528586   2263.178799 -21954.880303     50.265450
PG24 -19957.874907 -15448.168862  -9294.962401   -277.381106
PG25 -15111.980550  -6429.578997  20611.567794    459.826738
PG26  -5368.019026  23339.451424  10986.278405    234.427056
PG27  -5221.012176  18538.272189 -18358.057401    -14.759633
PG28 -13304.792588   9788.807132  20778.933133     79.314946
PG29 -22339.198621   1102.372457  14354.573422   -606.958084
PG30  19794.332654  -4047.620630 -17250.784462   -499.631040
PG31  -2756.831614  15533.365036  21131.254345   -221.158606
PG32 -19895.724759  16894.725065   4486.344837   -533.133749
PJ02 -28657.398165  24905.020346  23475.110453     -2.056450
PJ03 -30542.246164  16466.367001 -19374.434460     -0.592822
PJ04 -20802.626713  35473.514399  -4810.244205     98.122058
PR01  14345.778916 -21003.845987   1841.924537     62.657542
PR02   4809.387253 -19768.295553 -15389.055690    -22.571004
PR03  -8054.097072  -7431.665983 -22992.975686     82.522259
PR04 -15988.164751   8750.777224 -17812.839655    197.083248
PR05 -15436.934914  20075.800680  -2938.814294    116.694872
PR07   8673.164757   6592.597585  23100.931325     61.546822
PR08  16085.921658  -8952.976534  17728.101524    -71.947232
PR09   7794.333152  23065.666955   7769.567469    134.525176
PR11  13661.367539   4871.018972 -20973.347906   -121.002642
PR12   4191.806811 -14024.888887 -20861.992049     29.741608
PR13  -6399.177960 -22705.003247  -9711.629135    -37.733668
PR14 -14621.263958 -18593.184267   9538.428602     25.035462
PR15 -13326.265074  -3566.051331  21479.102988     87.333355
PR16  -4182.833897  13755.974553  21094.928783     17.299906
PR17 -20591.291599  -7486.528500  13106.422805      5.275708
PR18 -25286.509470   -707.149429  -3093.117115     94.729262
PR19 -18431.029591   5437.813242 -16785.745527   -242.032969
PR20   2788.629613  10614.065639 -23026.408586    -97.629467
PR21  21232.004140   7196.727537 -12140.978091    -27.331930
PR22  25166.549644    973.416358   4094.889365    106.149147
PR24  -3800.006331 -10989.560141  22717.806026    -18.936574
PR25  20120.411102   8595.638975 -13090.513964     44.543893
EOF
